[{"OBJECT_NAME":"CHECKMATE 5","OBJECT_ID":"2023-050B","EPOCH":"2026-03-09T17:13:01.638912","MEAN_MOTION":13.84966378,"ECCENTRICITY":0.00060126,"INCLINATION":81.004,"RA_OF_ASC_NODE":166.9717,"ARG_OF_PERICENTER":219.7953,"MEAN_ANOMALY":140.2763,"EPHEMERIS_TYPE":0,"CLASSIFICATION_TYPE":"U","NORAD_CAT_ID":56163,"ELEMENT_SET_NO":999,"REV_AT_EPOCH":14839,"BSTAR":0.0001009833,"MEAN_MOTION_DOT":1.25e-6,"MEAN_MOTION_DDOT":0},{"OBJECT_NAME":"METEOR 2-19","OBJECT_ID":"1990-057A","EPOCH":"2026-03-09T21:52:43.336416","MEAN_MOTION":13.84889733,"ECCENTRICITY":0.00161423,"INCLINATION":82.5506,"RA_OF_ASC_NODE":357.793,"ARG_OF_PERICENTER":5.6919,"MEAN_ANOMALY":354.4422,"EPHEMERIS_TYPE":0,"CLASSIFICATION_TYPE":"U","NORAD_CAT_ID":20670,"ELEMENT_SET_NO":999,"REV_AT_EPOCH":80389,"BSTAR":4.8146054e-5,"MEAN_MOTION_DOT":6.9e-7,"MEAN_MOTION_DDOT":0}]
